NORAD_CAT_ID,OBJECT_NAME,OBJECT_TYPE,EPOCH,MEAN_MOTION,ECCENTRICITY,INCLINATION,RA_OF_ASC_NODE,ARG_OF_PERICENTER,MEAN_ANOMALY,BSTAR,MEAN_MOTION_DOT,MEAN_MOTION_DDOT,TLE_LINE0,TLE_LINE1,TLE_LINE2,SEMIMAJOR_AXIS,PERIOD,APOGEE,PERIGEE,DECAYED
52269.0,STARLINK-3791,PAYLOAD,2022-04-25 18:00:00,15.81442673,0.0001245,53.217,354.8421,69.2152,138.5314,-0.0046919,-0.00861959,0.0,0 STARLINK-3791,1 52269U 22041J   22115.75001157 -.00861959  00000-0 -46919-2 0  9991,2 52269  53.2170 354.8421 0001245  69.2152 138.5314 15.81442673  1870,6704.496999999999,91.056,327.197,325.527,0.0
52269.0,STARLINK-3791,PAYLOAD,2022-04-26 14:00:01,15.79879281,0.0001098,53.2173,350.6717,78.31,194.2295,-0.0051369,-0.00876098,0.0,0 STARLINK-3791,1 52269U 22041J   22116.58335648 -.00876098  00000-0 -51369-2 0  9993,2 52269  53.2173 350.6717 0001098  78.3100 194.2295 15.79879281  2004,6708.919,91.146,331.521,330.048,0.0
52269.0,STARLINK-3791,PAYLOAD,2022-04-26 22:00:00,15.79251712,0.0001006,53.2175,349.0087,85.279,283.7617,-0.0053037,-0.00878552,0.0,0 STARLINK-3791,1 52269U 22041J   22116.91667824 -.00878552  00000-0 -53037-2 0  9995,2 52269  53.2175 349.0087 0001006  85.2790 283.7617 15.79251712  1474,6710.696999999999,91.182,333.237,331.886,0.0
52269.0,STARLINK-3791,PAYLOAD,2022-04-27 12:00:00,15.78148135,0.0001033,53.2174,346.0966,70.9411,15.2778,-0.0055495,-0.00874629,0.0,0 STARLINK-3791,1 52269U 22041J   22117.50001157 -.00874629  00000-0 -55495-2 0  9993,2 52269  53.2174 346.0966 0001033  70.9411  15.2778 15.78148135  2141,6713.825,91.246,336.3830000000001,334.996,0.0
52269.0,STARLINK-3791,PAYLOAD,2022-04-27 14:00:01,15.77992373,0.0001193,53.2174,345.6809,78.7695,121.2077,-0.0056032,-0.00876724,0.0,0 STARLINK-3791,1 52269U 22041J   22117.58335648 -.00876724  00000-0 -56032-2 0  9992,2 52269  53.2174 345.6809 0001193  78.7695 121.2077 15.77992373  1575,6714.266,91.255,336.93300000000005,335.33,0.0
52269.0,STARLINK-3791,PAYLOAD,2022-04-28 04:00:01,15.76891893,0.0001072,53.2172,342.7782,86.8123,187.6924,-0.005889,-0.00876877,0.0,0 STARLINK-3791,1 52269U 22041J   22118.16668981 -.00876877  00000-0 -58890-2 0  9999,2 52269  53.2172 342.7782 0001072  86.8123 187.6924 15.76891893  2250,6717.39,91.319,339.975,338.535,0.0
52269.0,STARLINK-3791,PAYLOAD,2022-04-28 14:00:01,15.7610406,0.0001124,53.2175,340.7041,72.1328,48.4111,-0.006086,-0.00875138,0.0,0 STARLINK-3791,1 52269U 22041J   22118.58334491 -.00875138  00000-0 -60860-2 0  9990,2 52269  53.2175 340.7041 0001124  72.1328  48.4111 15.76104060  1739,6719.628000000002,91.365,342.249,340.73800000000006,0.0
52269.0,STARLINK-3791,PAYLOAD,2022-04-29 04:00:00,15.75003506,0.0001175,53.2172,337.8093,76.6213,114.4808,-0.0064012,-0.00876636,0.0,0 STARLINK-3791,1 52269U 22041J   22119.16667824 -.00876636  00000-0 -64012-2 0  9991,2 52269  53.2172 337.8093 0001175  76.6213 114.4808 15.75003506  2402,6722.7580000000025,91.428,345.413,343.833,0.0
52269.0,STARLINK-3791,PAYLOAD,2022-04-29 14:00:01,15.74215919,0.000102,53.2176,335.7413,75.7851,318.5857,-0.0066138,-0.00875153,0.0,0 STARLINK-3791,1 52269U 22041J   22119.58334491 -.00875153  00000-0 -66138-2 0  9992,2 52269  53.2176 335.7413 0001020  75.7851 318.5857 15.74215919  1891,6725.0,91.474,347.551,346.17900000000014,0.0
52269.0,STARLINK-3791,PAYLOAD,2022-04-29 22:00:00,15.73407211,0.0001233,53.2173,334.0922,52.7992,71.3619,-0.0021847,-0.00299222,0.0,0 STARLINK-3791,1 52269U 22041J   22119.91667824 -.00299222  00000-0 -21847-2 0  9993,2 52269  53.2173 334.0922 0001233  52.7992  71.3619 15.73407211  1945,6727.304,91.521,349.999,348.34,0.0
52269.0,STARLINK-3791,PAYLOAD,2022-04-30 04:00:00,15.73205957,0.0001054,53.2171,332.8543,78.695,22.2751,-2.1599e-05,-3.65e-05,0.0,0 STARLINK-3791,1 52269U 22041J   22120.16667824 -.00003650  00000-0 -21599-4 0  9996,2 52269  53.2171 332.8543 0001054  78.6950  22.2751 15.73205957  2564,6727.878000000002,91.533,350.452,349.034,0.0
52269.0,STARLINK-3791,PAYLOAD,2022-04-30 14:00:01,15.73195789,0.0001266,53.2155,330.7895,81.7216,220.4037,0.00065508,0.00092315,0.0,0 STARLINK-3791,1 52269U 22041J   22120.58334491  .00092315  00000-0  65508-3 0  9994,2 52269  53.2155 330.7895 0001266  81.7216 220.4037 15.73195789  2052,6727.906999999997,91.533,350.624,348.92,0.0
52269.0,STARLINK-3791,PAYLOAD,2022-04-30 20:00:01,15.73270392,0.0001215,53.215,329.5541,68.7205,210.1417,0.00021874,0.00030282,0.0,0 STARLINK-3791,1 52269U 22041J   22120.83334491  .00030282  00000-0  21874-3 0  9995,2 52269  53.2150 329.5541 0001215  68.7205 210.1417 15.73270392  2678,6727.694,91.529,350.37699999999984,348.742,0.0
52269.0,STARLINK-3791,PAYLOAD,2022-04-30 22:00:00,15.73289295,0.0001226,53.2153,329.1421,65.2626,325.8497,-1.0556e-05,-2.107e-05,0.0,0 STARLINK-3791,1 52269U 22041J   22120.91667824 -.00002107  00000-0 -10556-4 0  9996,2 52269  53.2153 329.1421 0001226  65.2626 325.8497 15.73289295  2107,6727.641,91.528,350.33,348.681,0.0
52269.0,STARLINK-3791,PAYLOAD,2022-05-01 12:00:00,15.73239292,0.0001204,53.2148,326.2526,76.047,20.8613,-0.00052588,-0.00073901,0.0,0 STARLINK-3791,1 52269U 22041J   22121.50001157 -.00073901  00000-0 -52588-3 0  9993,2 52269  53.2148 326.2526 0001204  76.0470  20.8613 15.73239292  2775,6727.783,91.531,350.458,348.838,0.0
52269.0,STARLINK-3791,PAYLOAD,2022-05-01 14:00:01,15.73235464,0.0001274999999999,53.2149,325.8405,78.2826,130.8645,-0.00063503,-0.0008894,0.0,0 STARLINK-3791,1 52269U 22041J   22121.58334491 -.00088940  00000-0 -63503-3 0  9999,2 52269  53.2149 325.8405 0001275  78.2826 130.8645 15.73235464  2206,6727.794,91.531,350.517,348.801,0.0
52269.0,STARLINK-3791,PAYLOAD,2022-05-01 22:00:01,15.7316538,0.0001416,53.2147,324.1929,67.3031,230.8563,-0.00058625,-0.00081979,0.0,0 STARLINK-3791,1 52269U 22041J   22121.91668981 -.00081979  00000-0 -58625-3 0  9994,2 52269  53.2147 324.1929 0001416  67.3031 230.8563 15.73165380  2266,6727.994000000002,91.535,350.81199999999984,348.906,0.0
52269.0,STARLINK-3791,PAYLOAD,2022-05-02 14:00:01,15.73193352,0.0001151,53.2149,320.8919,75.3795,40.3768,0.00035361,0.00049284,0.0,0 STARLINK-3791,1 52269U 22041J   22122.58334491  .00049284  00000-0  35361-3 0  9997,2 52269  53.2149 320.8919 0001151  75.3795  40.3768 15.73193352  2948,6727.9140000000025,91.534,350.55400000000014,349.005,0.0
52269.0,STARLINK-3791,PAYLOAD,2022-05-02 22:00:01,15.73202292,0.0001115,53.215,319.2443,53.3544,151.4328,3.2798e-05,3.986e-05,0.0,0 STARLINK-3791,1 52269U 22041J   22122.91668981  .00003986  00000-0  32798-4 0  9999,2 52269  53.2150 319.2443 0001115  53.3544 151.4328 15.73202292  2425,6727.889,91.533,350.504,349.00300000000016,0.0
52269.0,STARLINK-3791,PAYLOAD,2022-05-03 04:00:00,15.73222157,9.64e-05,53.2146,318.0061,50.4167,131.0071,0.00011384,0.00015401,0.0,0 STARLINK-3791,1 52269U 22041J   22123.16667824  .00015401  00000-0  11384-3 0  9994,2 52269  53.2146 318.0061 0000964  50.4167 131.0071 15.73222157  3032,6727.831999999999,91.532,350.346,349.048,0.0
52269.0,STARLINK-3791,PAYLOAD,2022-05-03 14:00:01,15.73242959,0.0001052,53.2149,315.9432,64.387,318.2352,-0.0002738,-0.00038938,0.0,0 STARLINK-3791,1 52269U 22041J   22123.58334491 -.00038938  00000-0 -27380-3 0  9996,2 52269  53.2149 315.9432 0001052  64.3870 318.2352 15.73242959  2523,6727.773,91.531,350.345,348.93,0.0
52269.0,STARLINK-3791,PAYLOAD,2022-05-03 20:00:01,15.73245734,0.0001301,53.2145,314.7076,57.234,302.1225,-0.00045549,-0.00064184,0.0,0 STARLINK-3791,1 52269U 22041J   22123.83334491 -.00064184  00000-0 -45549-3 0  9993,2 52269  53.2145 314.7076 0001301  57.2340 302.1225 15.73245734  3144,6727.765,91.531,350.505,348.755,0.0
52269.0,STARLINK-3791,PAYLOAD,2022-05-03 22:00:00,15.7321445,0.0001325,53.2145,314.2955,55.4805,56.1251,-6.406100000000001e-05,-9.606e-05,0.0,0 STARLINK-3791,1 52269U 22041J   22123.91667824 -.00009606  00000-0 -64061-4 0  9990,2 52269  53.2145 314.2955 0001325  55.4805  56.1251 15.73214450  2580,6727.854,91.532,350.61,348.82800000000015,0.0
52269.0,STARLINK-3791,PAYLOAD,2022-05-04 04:00:00,15.73206727,0.000131,53.2142,313.0571,58.788,29.5215,0.00019162,0.00026365,0.0,0 STARLINK-3791,1 52269U 22041J   22124.16667824  .00026365  00000-0  19162-3 0  9998,2 52269  53.2142 313.0571 0001310  58.7880  29.5215 15.73206727  3191,6727.876,91.533,350.622,348.86,0.0
52269.0,STARLINK-3791,PAYLOAD,2022-05-04 12:00:00,15.7320622,0.0001315,53.2174,311.4078,59.9641,117.1522,-1.6253e-05,-2.901e-05,0.0,0 STARLINK-3791,1 52269U 22041J   22124.50001157 -.00002901  00000-0 -16253-4 0  9998,2 52269  53.2174 311.4078 0001315  59.9641 117.1522 15.73206220  3242,6727.877,91.533,350.62699999999984,348.858,0.0
52269.0,STARLINK-3791,PAYLOAD,2022-05-04 14:00:01,15.73206397,0.0001306,53.2176,310.9959,61.7645,227.5851,-2.1139e-05,-3.586e-05,0.0,0 STARLINK-3791,1 52269U 22041J   22124.58334491 -.00003586  00000-0 -21139-4 0  9995,2 52269  53.2176 310.9959 0001306  61.7645 227.5851 15.73206397  2684,6727.877,91.533,350.621,348.86300000000006,0.0
52269.0,STARLINK-3791,PAYLOAD,2022-05-04 20:00:01,15.73232462,0.0001286,53.2147,309.7586,50.5834,215.7446,0.0001725,0.00023691,0.0,0 STARLINK-3791,1 52269U 22041J   22124.83335648  .00023691  00000-0  17250-3 0  9993,2 52269  53.2147 309.7586 0001286  50.5834 215.7446 15.73232462  3308,6727.803000000001,91.531,350.533,348.802,0.0
52269.0,STARLINK-3791,PAYLOAD,2022-05-04 22:00:01,15.73242708,0.0001315,53.2149,309.3464,48.3027,330.2667,4.7077e-05,6.003e-05,0.0,0 STARLINK-3791,1 52269U 22041J   22124.91668981  .00006003  00000-0  47077-4 0  9990,2 52269  53.2149 309.3464 0001315  48.3027 330.2667 15.73242708  2731,6727.773,91.531,350.523,348.754,0.0
52269.0,STARLINK-3791,PAYLOAD,2022-05-05 14:00:01,15.73236379,0.0001181,53.2148,306.0455,55.6181,140.8199,-0.00045497,-0.00064086,0.0,0 STARLINK-3791,1 52269U 22041J   22125.58334491 -.00064086  00000-0 -45497-3 0  9990,2 52269  53.2148 306.0455 0001181  55.6181 140.8199 15.73236379  3426,6727.791,91.531,350.451,348.862,0.0
